{"type": "FeatureCollection", "features": [ {"type": "Feature", "properties": {"norad_id": 64902, "name": "CO3D 2", "group": "resource", "lat": -37.067616961928174, "lon": 75.28122826988279, "alt_km": 511.65144985808547, "timestamp": "2025-12-19T10:50:00.849778+00:00", "meta": {"OBJECT_NAME": "CO3D 2", "OBJECT_ID": "2025-156D", "EPOCH": "2025-12-18T22:21:35.924256", "MEAN_MOTION": 15.20201954, "ECCENTRICITY": 8.075e-05, "INCLINATION": 97.4339, "RA_OF_ASC_NODE": 69.1085, "ARG_OF_PERICENTER": 54.6633, "MEAN_ANOMALY": 305.4677, "EPHEMERIS_TYPE": 0, "CLASSIFICATION_TYPE": "U", "NORAD_CAT_ID": 64902, "ELEMENT_SET_NO": 999, "REV_AT_EPOCH": 2214, "BSTAR": 0.00031849148, "MEAN_MOTION_DOT": 6.833e-05, "MEAN_MOTION_DDOT": 0}, "tle": {"line1": "1 64902U 25156D   25352.93166579  .00006833  00000+0  31849-3 0  9990", "line2": "2 64902  97.4339  69.1085 0000807  54.6633 305.4677 15.20201954 22149"}}, "geometry": {"type": "Point", "coordinates": [75.28122826988279, -37.067616961928174]}}, {"type": "Feature", "properties": {"norad_id": 64903, "name": "CO3D 1", "group": "resource", "lat": -37.829890307117196, "lon": 75.44131237512332, "alt_km": 511.95305775760517, "timestamp": "2025-12-19T10:50:00.849787+00:00", "meta": {"OBJECT_NAME": "CO3D 1", "OBJECT_ID": "2025-156E", "EPOCH": "2025-12-18T22:21:48.316608", "MEAN_MOTION": 15.20207451, "ECCENTRICITY": 9.105e-05, "INCLINATION": 97.4346, "RA_OF_ASC_NODE": 69.1094, "ARG_OF_PERICENTER": 79.7349, "MEAN_ANOMALY": 280.3988, "EPHEMERIS_TYPE": 0, "CLASSIFICATION_TYPE": "U", "NORAD_CAT_ID": 64903, "ELEMENT_SET_NO": 999, "REV_AT_EPOCH": 2214, "BSTAR": 0.00021881164, "MEAN_MOTION_DOT": 4.673e-05, "MEAN_MOTION_DDOT": 0}, "tle": {"line1": "1 64903U 25156E   25352.93180922  .00004673  00000+0  21881-3 0  9994", "line2": "2 64903  97.4346  69.1094 0000910  79.7349 280.3988 15.20207451 22149"}}, "geometry": {"type": "Point", "coordinates": [75.44131237512332, -37.829890307117196]}}, {"type": "Feature", "properties": {"norad_id": 66514, "name": "SENTINEL-6B", "group": "resource", "lat": 65.57628014873725, "lon": -109.80618417230761, "alt_km": 1334.2575326621054, "timestamp": "2025-12-19T10:50:00.849797+00:00", "meta": {"OBJECT_NAME": "SENTINEL-6B", "OBJECT_ID": "2025-264A", "EPOCH": "2025-12-12T06:01:21.428544", "MEAN_MOTION": 12.81479578, "ECCENTRICITY": 0.00078482, "INCLINATION": 66.0385, "RA_OF_ASC_NODE": 163.4531, "ARG_OF_PERICENTER": 270.1376, "MEAN_ANOMALY": 89.874, "EPHEMERIS_TYPE": 0, "CLASSIFICATION_TYPE": "U", "NORAD_CAT_ID": 66514, "ELEMENT_SET_NO": 999, "REV_AT_EPOCH": 322, "BSTAR": 0.00018573353, "MEAN_MOTION_DOT": -1.8e-07, "MEAN_MOTION_DDOT": 0}, "tle": {"line1": "1 66514U 25264A   25346.25094246 -.00000018  00000+0  18573-3 0  9999", "line2": "2 66514  66.0385 163.4531 0007848 270.1376  89.8740 12.81479578  3223"}}, "geometry": {"type": "Point", "coordinates": [-109.80618417230761, 65.57628014873725]}}]}